{
  "links" : {
    "next" : "https://api.nasa.gov/neo/rest/v1/feed?start_date=2011-11-16&end_date=2011-11-16&detailed=true&api_key=t0TVs3DtDT2H8Oy2Zy8m2eVrNsAVKAexjcZXUckd",
    "prev" : "https://api.nasa.gov/neo/rest/v1/feed?start_date=2011-11-14&end_date=2011-11-14&detailed=true&api_key=t0TVs3DtDT2H8Oy2Zy8m2eVrNsAVKAexjcZXUckd",
    "self" : "https://api.nasa.gov/neo/rest/v1/feed?start_date=2011-11-15&end_date=2011-11-15&detailed=true&api_key=t0TVs3DtDT2H8Oy2Zy8m2eVrNsAVKAexjcZXUckd"
  },
  "element_count" : 8,
  "near_earth_objects" : {
    "2011-11-15" : [ {
      "links" : {
        "self" : "https://api.nasa.gov/neo/rest/v1/neo/3602790?api_key=t0TVs3DtDT2H8Oy2Zy8m2eVrNsAVKAexjcZXUckd"
      },
      "neo_reference_id" : "3602790",
      "name" : "(2012 HO8)",
      "nasa_jpl_url" : "http://ssd.jpl.nasa.gov/sbdb.cgi?sstr=3602790",
      "absolute_magnitude_h" : 24.2,
      "estimated_diameter" : {
        "kilometers" : {
          "estimated_diameter_min" : 0.0384197891,
          "estimated_diameter_max" : 0.0859092601
        },
        "meters" : {
          "estimated_diameter_min" : 38.4197891064,
          "estimated_diameter_max" : 85.9092601232
        },
        "miles" : {
          "estimated_diameter_min" : 0.0238729428,
          "estimated_diameter_max" : 0.0533815229
        },
        "feet" : {
          "estimated_diameter_min" : 126.0491808919,
          "estimated_diameter_max" : 281.8545369825
        }
      },
      "is_potentially_hazardous_asteroid" : false,
      "close_approach_data" : [ {
        "close_approach_date" : "2011-11-15",
        "epoch_date_close_approach" : 1321344000000,
        "relative_velocity" : {
          "kilometers_per_second" : "14.1366596671",
          "kilometers_per_hour" : "50891.9748016882",
          "miles_per_hour" : "31622.2940094156"
        },
        "miss_distance" : {
          "astronomical" : "0.3671854121",
          "lunar" : "142.8351287842",
          "kilometers" : "54930156",
          "miles" : "34132016"
        },
        "orbiting_body" : "Earth"
      } ],
      "orbital_data" : {
        "orbit_id" : "7",
        "orbit_determination_date" : "2017-04-06 08:49:59",
        "orbit_uncertainty" : "8",
        "minimum_orbit_intersection" : ".0634031",
        "jupiter_tisserand_invariant" : "5.375",
        "epoch_osculation" : "2456039.5",
        "eccentricity" : ".1018140068233321",
        "semi_major_axis" : "1.151214735900062",
        "inclination" : "24.00168471598971",
        "ascending_node_longitude" : "211.7004670272368",
        "orbital_period" : "451.1624402120455",
        "perihelion_distance" : "1.034004950924013",
        "perihelion_argument" : "310.0416117356118",
        "aphelion_distance" : "1.268424520876112",
        "perihelion_time" : "2455985.408020110092",
        "mean_anomaly" : "43.16208758693334",
        "mean_motion" : ".7979387642082987",
        "equinox" : "J2000"
      }
    }, {
      "links" : {
        "self" : "https://api.nasa.gov/neo/rest/v1/neo/3661495?api_key=t0TVs3DtDT2H8Oy2Zy8m2eVrNsAVKAexjcZXUckd"
      },
      "neo_reference_id" : "3661495",
      "name" : "(2014 CF13)",
      "nasa_jpl_url" : "http://ssd.jpl.nasa.gov/sbdb.cgi?sstr=3661495",
      "absolute_magnitude_h" : 25.0,
      "estimated_diameter" : {
        "kilometers" : {
          "estimated_diameter_min" : 0.02658,
          "estimated_diameter_max" : 0.0594346868
        },
        "meters" : {
          "estimated_diameter_min" : 26.58,
          "estimated_diameter_max" : 59.4346868419
        },
        "miles" : {
          "estimated_diameter_min" : 0.0165160412,
          "estimated_diameter_max" : 0.0369309908
        },
        "feet" : {
          "estimated_diameter_min" : 87.2047272,
          "estimated_diameter_max" : 194.9956979785
        }
      },
      "is_potentially_hazardous_asteroid" : false,
      "close_approach_data" : [ {
        "close_approach_date" : "2011-11-15",
        "epoch_date_close_approach" : 1321344000000,
        "relative_velocity" : {
          "kilometers_per_second" : "9.5980585191",
          "kilometers_per_hour" : "34553.0106687644",
          "miles_per_hour" : "21469.8971013775"
        },
        "miss_distance" : {
          "astronomical" : "0.4479206618",
          "lunar" : "174.2411346436",
          "kilometers" : "67007976",
          "miles" : "41636824"
        },
        "orbiting_body" : "Earth"
      } ],
      "orbital_data" : {
        "orbit_id" : "8",
        "orbit_determination_date" : "2017-04-06 08:42:31",
        "orbit_uncertainty" : "7",
        "minimum_orbit_intersection" : ".0257584",
        "jupiter_tisserand_invariant" : "5.861",
        "epoch_osculation" : "2458000.5",
        "eccentricity" : ".2941894536936857",
        "semi_major_axis" : "1.021897639123627",
        "inclination" : "24.69737710655295",
        "ascending_node_longitude" : "323.0772005852693",
        "orbital_period" : "377.3197348524952",
        "perihelion_distance" : ".7212661309389796",
        "perihelion_argument" : "73.70968106072306",
        "aphelion_distance" : "1.322529147308273",
        "perihelion_time" : "2458134.284360536826",
        "mean_anomaly" : "232.3566107346989",
        "mean_motion" : ".9540979883830727",
        "equinox" : "J2000"
      }
    } ]
  }
}